start=new Date('2023-03-01T00:00:00.000Z').valueOf();
sats=[{"OBJECT_TYPE":"PAYLOAD","GP_ID":"227235425","SITE":"AFETR","PERIOD":"95.588","RA_OF_ASC_NODE":"9.0651","MEAN_ELEMENT_THEORY":"SGP4","REF_FRAME":"TEME","INCLINATION":"53.0550","EPOCH":"2023-02-28T06:20:17.744928","COUNTRY_CODE":"US","OBJECT_ID":"2020-025AA","NORAD_CAT_ID":"45555","SEMIMAJOR_AXIS":"6925.165","MEAN_MOTION":"15.06459891","ELEMENT_SET_NO":"999","TLE_LINE2":"2 45555  53.0550   9.0651 0001652  85.0049 275.1129 15.06459891158756","REV_AT_EPOCH":"15875","DECAY_DATE":null,"OBJECT_NAME":"STARLINK-1327","TLE_LINE1":"1 45555U 20025AA  23059.26409427  .00032294  00000-0  21735-2 0  9996","MEAN_MOTION_DOT":"0.00032294","TIME_SYSTEM":"UTC","LAUNCH_DATE":"2020-04-22","APOAPSIS":"548.174","MEAN_MOTION_DDOT":"0.0000000000000","ARG_OF_PERICENTER":"85.0049","PERIAPSIS":"545.886","CLASSIFICATION_TYPE":"U","CENTER_NAME":"EARTH","RCS_SIZE":"LARGE","BSTAR":"0.00217350000000","EPHEMERIS_TYPE":"0","ECCENTRICITY":"0.00016520","FILE":"3847542","MEAN_ANOMALY":"275.1129"},{"SEMIMAJOR_AXIS":"6925.191","MEAN_MOTION":"15.06451518","ELEMENT_SET_NO":"999","TLE_LINE2":"2 45556  53.0537   9.1781 0001658  82.3270 277.7907 15.06451518158759","DECAY_DATE":null,"OBJECT_NAME":"STARLINK-1334","REV_AT_EPOCH":"15875","TLE_LINE1":"1 45556U 20025AB  23059.23829438  .00018070  00000-0  12272-2 0  9994","TIME_SYSTEM":"UTC","MEAN_MOTION_DOT":"0.00018070","LAUNCH_DATE":"2020-04-22","OBJECT_TYPE":"PAYLOAD","GP_ID":"227235175","SITE":"AFETR","PERIOD":"95.589","RA_OF_ASC_NODE":"9.1781","MEAN_ELEMENT_THEORY":"SGP4","REF_FRAME":"TEME","INCLINATION":"53.0537","EPOCH":"2023-02-28T05:43:08.634432","COUNTRY_CODE":"US","OBJECT_ID":"2020-025AB","NORAD_CAT_ID":"45556","BSTAR":"0.00122720000000","EPHEMERIS_TYPE":"0","ECCENTRICITY":"0.00016580","FILE":"3847542","MEAN_ANOMALY":"277.7907","APOAPSIS":"548.204","MEAN_MOTION_DDOT":"0.0000000000000","ARG_OF_PERICENTER":"82.3270","PERIAPSIS":"545.907","CLASSIFICATION_TYPE":"U","CENTER_NAME":"EARTH","RCS_SIZE":"LARGE"},{"INCLINATION":"53.0561","MEAN_ELEMENT_THEORY":"SGP4","REF_FRAME":"TEME","RA_OF_ASC_NODE":"9.7436","PERIOD":"95.591","SITE":"AFETR","OBJECT_TYPE":"PAYLOAD","GP_ID":"227234423","NORAD_CAT_ID":"45557","OBJECT_ID":"2020-025AC","COUNTRY_CODE":"US","EPOCH":"2023-02-28T02:42:40.979520","TLE_LINE2":"2 45557  53.0561   9.7436 0002077  84.9230 275.1996 15.06416917158732","ELEMENT_SET_NO":"999","MEAN_MOTION":"15.06416917","SEMIMAJOR_AXIS":"6925.297","LAUNCH_DATE":"2020-04-22","TIME_SYSTEM":"UTC","MEAN_MOTION_DOT":"0.00031854","TLE_LINE1":"1 45557U 20025AC  23059.11297430  .00031854  00000-0  21467-2 0  9994","DECAY_DATE":null,"REV_AT_EPOCH":"15873","OBJECT_NAME":"STARLINK-1336","CLASSIFICATION_TYPE":"U","PERIAPSIS":"545.723","ARG_OF_PERICENTER":"84.9230","MEAN_MOTION_DDOT":"0.0000000000000","APOAPSIS":"548.600","RCS_SIZE":"LARGE","CENTER_NAME":"EARTH","EPHEMERIS_TYPE":"0","BSTAR":"0.00214670000000","MEAN_ANOMALY":"275.1996","FILE":"3847542","ECCENTRICITY":"0.00020770"},{"GP_ID":"227234674","OBJECT_TYPE":"PAYLOAD","PERIOD":"95.594","SITE":"AFETR","RA_OF_ASC_NODE":"9.5936","INCLINATION":"53.0541","MEAN_ELEMENT_THEORY":"SGP4","REF_FRAME":"TEME","EPOCH":"2023-02-28T03:30:28.465920","OBJECT_ID":"2020-025AD","COUNTRY_CODE":"US","NORAD_CAT_ID":"45558","SEMIMAJOR_AXIS":"6925.456","MEAN_MOTION":"15.06364891","ELEMENT_SET_NO":"999","TLE_LINE2":"2 45558  53.0541   9.5936 0001315  82.2973 277.8165 15.06364891158733","OBJECT_NAME":"STARLINK-1342","DECAY_DATE":null,"REV_AT_EPOCH":"15873","TLE_LINE1":"1 45558U 20025AD  23059.14616280  .00009435  00000-0  65207-3 0  9997","LAUNCH_DATE":"2020-04-22","MEAN_MOTION_DOT":"0.00009435","TIME_SYSTEM":"UTC","APOAPSIS":"548.232","ARG_OF_PERICENTER":"82.2973","MEAN_MOTION_DDOT":"0.0000000000000","PERIAPSIS":"546.410","CLASSIFICATION_TYPE":"U","CENTER_NAME":"EARTH","RCS_SIZE":"LARGE","BSTAR":"0.00065207000000","EPHEMERIS_TYPE":"0","ECCENTRICITY":"0.00013150","FILE":"3847542","MEAN_ANOMALY":"277.8165"},{"BSTAR":"0.00044978000000","EPHEMERIS_TYPE":"0","FILE":"3847542","MEAN_ANOMALY":"257.0099","ECCENTRICITY":"0.00011690","PERIAPSIS":"546.305","CLASSIFICATION_TYPE":"U","APOAPSIS":"547.924","MEAN_MOTION_DDOT":"0.0000000000000","ARG_OF_PERICENTER":"103.1021","CENTER_NAME":"EARTH","RCS_SIZE":"LARGE","ELEMENT_SET_NO":"999","TLE_LINE2":"2 45559  53.0551   8.8050 0001169 103.1021 257.0099 15.06432285158760","SEMIMAJOR_AXIS":"6925.250","MEAN_MOTION":"15.06432285","MEAN_MOTION_DOT":"0.00006430","TIME_SYSTEM":"UTC","LAUNCH_DATE":"2020-04-22","OBJECT_NAME":"STARLINK-1344","DECAY_DATE":null,"REV_AT_EPOCH":"15876","TLE_LINE1":"1 45559U 20025AE  23059.31105723  .00006430  00000-0  44978-3 0  9996","RA_OF_ASC_NODE":"8.8050","MEAN_ELEMENT_THEORY":"SGP4","REF_FRAME":"TEME","INCLINATION":"53.0551","OBJECT_TYPE":"PAYLOAD","GP_ID":"227234925","SITE":"AFETR","PERIOD":"95.590","COUNTRY_CODE":"US","OBJECT_ID":"2020-025AE","NORAD_CAT_ID":"45559","EPOCH":"2023-02-28T07:27:55.344672"},{"ELEMENT_SET_NO":"999","TLE_LINE2":"2 45560  53.0537 359.1901 0001513  97.0393 263.0768 15.06437398158893","SEMIMAJOR_AXIS":"6925.234","MEAN_MOTION":"15.06437398","TIME_SYSTEM":"UTC","MEAN_MOTION_DOT":"0.00009324","LAUNCH_DATE":"2020-04-22","DECAY_DATE":null,"REV_AT_EPOCH":"15889","OBJECT_NAME":"STARLINK-1346","TLE_LINE1":"1 45560U 20025AF  23059.23458096  .00009324  00000-0  64334-3 0  9996","RA_OF_ASC_NODE":"359.1901","REF_FRAME":"TEME","MEAN_ELEMENT_THEORY":"SGP4","INCLINATION":"53.0537","GP_ID":"227235676","OBJECT_TYPE":"PAYLOAD","SITE":"AFETR","PERIOD":"95.590","COUNTRY_CODE":"US","OBJECT_ID":"2020-025AF","NORAD_CAT_ID":"45560","EPOCH":"2023-02-28T05:37:47.794944","BSTAR":"0.00064334000000","EPHEMERIS_TYPE":"0","FILE":"3847542","MEAN_ANOMALY":"263.0768","ECCENTRICITY":"0.00015130","PERIAPSIS":"546.051","CLASSIFICATION_TYPE":"U","APOAPSIS":"548.147","MEAN_MOTION_DDOT":"0.0000000000000","ARG_OF_PERICENTER":"97.0393","RCS_SIZE":"LARGE","CENTER_NAME":"EARTH"},{"SEMIMAJOR_AXIS":"6838.059","MEAN_MOTION":"15.35336351","ELEMENT_SET_NO":"999","TLE_LINE2":"2 45561  53.0623 250.5308 0006979 243.2303 116.7985 15.35336351160484","OBJECT_NAME":"STARLINK-1348","DECAY_DATE":null,"REV_AT_EPOCH":"16048","TLE_LINE1":"1 45561U 20025AG  23059.85695212  .00091950  00000-0  26184-2 0  9994","LAUNCH_DATE":"2020-04-22","TIME_SYSTEM":"UTC","MEAN_MOTION_DOT":"0.00091950","GP_ID":"227264808","OBJECT_TYPE":"PAYLOAD","PERIOD":"93.791","SITE":"AFETR","RA_OF_ASC_NODE":"250.5308","INCLINATION":"53.0623","REF_FRAME":"TEME","MEAN_ELEMENT_THEORY":"SGP4","EPOCH":"2023-02-28T20:34:00.663168","OBJECT_ID":"2020-025AG","COUNTRY_CODE":"US","NORAD_CAT_ID":"45561","BSTAR":"0.00261840000000","EPHEMERIS_TYPE":"0","ECCENTRICITY":"0.00069790","FILE":"3847656","MEAN_ANOMALY":"116.7985","APOAPSIS":"464.696","ARG_OF_PERICENTER":"243.2303","MEAN_MOTION_DDOT":"0.0000000000000","PERIAPSIS":"455.151","CLASSIFICATION_TYPE":"U","CENTER_NAME":"EARTH","RCS_SIZE":"LARGE"},{"EPOCH":"2023-02-28T06:09:40.863744","COUNTRY_CODE":"US","OBJECT_ID":"2020-025AH","NORAD_CAT_ID":"45562","OBJECT_TYPE":"PAYLOAD","GP_ID":"227234174","SITE":"AFETR","PERIOD":"95.588","RA_OF_ASC_NODE":"9.0981","MEAN_ELEMENT_THEORY":"SGP4","REF_FRAME":"TEME","INCLINATION":"53.0570","DECAY_DATE":null,"REV_AT_EPOCH":"15875","OBJECT_NAME":"STARLINK-1354","TLE_LINE1":"1 45562U 20025AH  23059.25672296  .00027010  00000-0  18223-2 0  9997","TIME_SYSTEM":"UTC","MEAN_MOTION_DOT":"0.00027010","LAUNCH_DATE":"2020-04-22","SEMIMAJOR_AXIS":"6925.166","MEAN_MOTION":"15.06459688","ELEMENT_SET_NO":"999","TLE_LINE2":"2 45562  53.0570   9.0981 0001591  93.0032 267.1139 15.06459688158751","CENTER_NAME":"EARTH","RCS_SIZE":"LARGE","APOAPSIS":"548.132","MEAN_MOTION_DDOT":"0.0000000000000","ARG_OF_PERICENTER":"93.0032","PERIAPSIS":"545.929","CLASSIFICATION_TYPE":"U","ECCENTRICITY":"0.00015910","FILE":"3847542","MEAN_ANOMALY":"267.1139","BSTAR":"0.00182230000000","EPHEMERIS_TYPE":"0"},{"RCS_SIZE":"LARGE","CENTER_NAME":"EARTH","CLASSIFICATION_TYPE":"U","PERIAPSIS":"545.811","MEAN_MOTION_DDOT":"0.0000000000000","ARG_OF_PERICENTER":"82.3980","APOAPSIS":"548.352","MEAN_ANOMALY":"277.7217","FILE":"3847668","ECCENTRICITY":"0.00018340","EPHEMERIS_TYPE":"0","BSTAR":"0.00138170000000","NORAD_CAT_ID":"45563","COUNTRY_CODE":"US","OBJECT_ID":"2020-025AJ","EPOCH":"2023-02-28T03:19:50.464992","REF_FRAME":"TEME","MEAN_ELEMENT_THEORY":"SGP4","INCLINATION":"53.0551","RA_OF_ASC_NODE":"9.6320","SITE":"AFETR","PERIOD":"95.589","OBJECT_TYPE":"PAYLOAD","GP_ID":"227271272","TIME_SYSTEM":"UTC","MEAN_MOTION_DOT":"0.00020383","LAUNCH_DATE":"2020-04-22","TLE_LINE1":"1 45563U 20025AJ  23059.13877853  .00020383  00000-0  13817-2 0  9991","DECAY_DATE":null,"REV_AT_EPOCH":"15813","OBJECT_NAME":"STARLINK-1355","TLE_LINE2":"2 45563  53.0551   9.6320 0001834  82.3980 277.7217 15.06443098158131","ELEMENT_SET_NO":"999","MEAN_MOTION":"15.06443098","SEMIMAJOR_AXIS":"6925.216"},{"GP_ID":"227235176","OBJECT_TYPE":"PAYLOAD","PERIOD":"95.590","SITE":"AFETR","RA_OF_ASC_NODE":"9.6436","INCLINATION":"53.0541","REF_FRAME":"TEME","MEAN_ELEMENT_THEORY":"SGP4","EPOCH":"2023-02-28T03:14:31.996320","OBJECT_ID":"2020-025AK","COUNTRY_CODE":"US","NORAD_CAT_ID":"45564","SEMIMAJOR_AXIS":"6925.246","MEAN_MOTION":"15.06433514","ELEMENT_SET_NO":"999","TLE_LINE2":"2 45564  53.0541   9.6436 0001318  84.2474 275.8665 15.06433514158739","OBJECT_NAME":"STARLINK-1356","DECAY_DATE":null,"REV_AT_EPOCH":"15873","TLE_LINE1":"1 45564U 20025AK  23059.13509255  .00015888  00000-0  10821-2 0  9996","LAUNCH_DATE":"2020-04-22","TIME_SYSTEM":"UTC","MEAN_MOTION_DOT":"0.00015888","APOAPSIS":"548.024","ARG_OF_PERICENTER":"84.2474","MEAN_MOTION_DDOT":"0.0000000000000","PERIAPSIS":"546.198","CLASSIFICATION_TYPE":"U","CENTER_NAME":"EARTH","RCS_SIZE":"LARGE","BSTAR":"0.00108210000000","EPHEMERIS_TYPE":"0","ECCENTRICITY":"0.00013180","FILE":"3847542","MEAN_ANOMALY":"275.8665"}];
